STARLINK-2460           
1 48120U 21027AE  25310.53144751  .00007979  00000+0  55383-3 0  9996
2 48120  53.0555   4.4999 0001336  85.6694 274.4448 15.06407809253863
STARLINK-2462           
1 48121U 21027AF  25310.50288574  .00011360  00000+0  78004-3 0  9990
2 48121  53.0547 354.6253 0001178  88.0573 272.0551 15.06413156253989
STARLINK-2464           
1 48123U 21027AH  25310.51118223  .00014118  00000+0  96446-3 0  9990
2 48123  53.0564 344.5848 0001597  98.4627 261.6543 15.06412455254132
STARLINK-2465           
1 48124U 21027AJ  25310.51025120 -.00001340  00000+0 -71075-4 0  9991
2 48124  53.0544 354.5932 0001514  86.6726 273.4436 15.06399183253980
STARLINK-2466           
1 48125U 21027AK  25310.59045973  .00015258  00000+0  10403-2 0  9995
2 48125  53.0556   4.4726 0001582  91.6810 268.4360 15.06425752253860
STARLINK-2467           
1 48126U 21027AL  25310.47800961  .00013287  00000+0  90896-3 0  9994
2 48126  53.0541 344.7360 0001401  87.6538 272.4612 15.06410493254133
STARLINK-2468           
1 48127U 21027AM  25310.53515007  .00014659  00000+0  10009-2 0  9997
2 48127  53.0549   4.4798 0001417  72.3223 287.7921 15.06402595253850
STARLINK-2469           
1 48128U 21027AN  25310.64848653 -.00005295  00000+0 -33667-3 0  9990
2 48128  53.0553 294.0574 0001542  87.3675 272.7491 15.06415859254844
STARLINK-2471           
1 48129U 21027AP  25310.46142022  .00015735  00000+0  10724-2 0  9994
2 48129  53.0548   4.8118 0001353  97.7039 262.4104 15.06416337253847
STARLINK-2472           
1 48130U 21027AQ  25310.56976035  .00023417  00000+0  15844-2 0  9990
2 48130  53.0550   9.8741 0001345  82.4968 277.6174 15.06430747253781
STARLINK-2473           
1 48131U 21027AR  25310.47064074  .00011820  00000+0  81090-3 0  9994
2 48131  53.0546 344.7702 0001492 100.6991 259.4166 15.06406619254126
STARLINK-2474           
1 48132U 21027AS  25310.58305632  .00015884  00000+0  10822-2 0  9993
2 48132  53.0552   4.2650 0001275  90.0632 270.0503 15.06420912253852
STARLINK-2475           
1 48133U 21027AT  25310.44666958 -.00000711  00000+0 -28850-4 0  9997
2 48133  53.0556   4.8767 0001334  93.8041 266.3101 15.06416432253846
STARLINK-2476           
1 48134U 21027AU  25310.56463486  .00018943  00000+0  12865-2 0  9993
2 48134  53.0555   4.3491 0001615  75.1392 284.9776 15.06418714253859
STARLINK-2478           
1 48135U 21027AV  25310.43333985  .00013052  00000+0  89341-3 0  9990
2 48135  53.0544  10.1036 0001199  89.0722 271.0404 15.06404410253769
STARLINK-2479           
1 48136U 21027AW  25310.57204142 -.00008368  00000+0 -54354-3 0  9990
2 48136  53.0558   4.8167 0001419  96.1150 264.0000 15.06400453253856
