[{"OBJECT_NAME":"STARLINK-2460","OBJECT_ID":"2021-027AE","EPOCH":"2025-11-06T12:45:17.064864","MEAN_MOTION":15.06407809,"ECCENTRICITY":0.0001336,"INCLINATION":53.0555,"RA_OF_ASC_NODE":4.4999,"ARG_OF_PERICENTER":85.6694,"MEAN_ANOMALY":274.4448,"EPHEMERIS_TYPE":0,"CLASSIFICATION_TYPE":"U","NORAD_CAT_ID":48120,"ELEMENT_SET_NO":999,"REV_AT_EPOCH":25386,"BSTAR":0.00055383,"MEAN_MOTION_DOT":7.979e-5,"MEAN_MOTION_DDOT":0},{"OBJECT_NAME":"STARLINK-2462","OBJECT_ID":"2021-027AF","EPOCH":"2025-11-06T12:04:09.327936","MEAN_MOTION":15.06413156,"ECCENTRICITY":0.0001178,"INCLINATION":53.0547,"RA_OF_ASC_NODE":354.6253,"ARG_OF_PERICENTER":88.0573,"MEAN_ANOMALY":272.0551,"EPHEMERIS_TYPE":0,"CLASSIFICATION_TYPE":"U","NORAD_CAT_ID":48121,"ELEMENT_SET_NO":999,"REV_AT_EPOCH":25398,"BSTAR":0.00078004,"MEAN_MOTION_DOT":0.0001136,"MEAN_MOTION_DDOT":0},{"OBJECT_NAME":"STARLINK-2464","OBJECT_ID":"2021-027AH","EPOCH":"2025-11-06T12:16:06.144672","MEAN_MOTION":15.06412455,"ECCENTRICITY":0.0001597,"INCLINATION":53.0564,"RA_OF_ASC_NODE":344.5848,"ARG_OF_PERICENTER":98.4627,"MEAN_ANOMALY":261.6543,"EPHEMERIS_TYPE":0,"CLASSIFICATION_TYPE":"U","NORAD_CAT_ID":48123,"ELEMENT_SET_NO":999,"REV_AT_EPOCH":25413,"BSTAR":0.00096446,"MEAN_MOTION_DOT":0.00014118,"MEAN_MOTION_DDOT":0},{"OBJECT_NAME":"STARLINK-2465","OBJECT_ID":"2021-027AJ","EPOCH":"2025-11-06T12:14:45.703680","MEAN_MOTION":15.06399183,"ECCENTRICITY":0.0001514,"INCLINATION":53.0544,"RA_OF_ASC_NODE":354.5932,"ARG_OF_PERICENTER":86.6726,"MEAN_ANOMALY":273.4436,"EPHEMERIS_TYPE":0,"CLASSIFICATION_TYPE":"U","NORAD_CAT_ID":48124,"ELEMENT_SET_NO":999,"REV_AT_EPOCH":25398,"BSTAR":-7.1075e-5,"MEAN_MOTION_DOT":-1.34e-5,"MEAN_MOTION_DDOT":0},{"OBJECT_NAME":"STARLINK-2466","OBJECT_ID":"2021-027AK","EPOCH":"2025-11-06T14:10:15.720672","MEAN_MOTION":15.06425752,"ECCENTRICITY":0.0001582,"INCLINATION":53.0556,"RA_OF_ASC_NODE":4.4726,"ARG_OF_PERICENTER":91.681,"MEAN_ANOMALY":268.436,"EPHEMERIS_TYPE":0,"CLASSIFICATION_TYPE":"U","NORAD_CAT_ID":48125,"ELEMENT_SET_NO":999,"REV_AT_EPOCH":25386,"BSTAR":0.0010403,"MEAN_MOTION_DOT":0.00015258,"MEAN_MOTION_DDOT":0},{"OBJECT_NAME":"STARLINK-2467","OBJECT_ID":"2021-027AL","EPOCH":"2025-11-06T11:28:20.030304","MEAN_MOTION":15.06410493,"ECCENTRICITY":0.0001401,"INCLINATION":53.0541,"RA_OF_ASC_NODE":344.736,"ARG_OF_PERICENTER":87.6538,"MEAN_ANOMALY":272.4612,"EPHEMERIS_TYPE":0,"CLASSIFICATION_TYPE":"U","NORAD_CAT_ID":48126,"ELEMENT_SET_NO":999,"REV_AT_EPOCH":25413,"BSTAR":0.00090896,"MEAN_MOTION_DOT":0.00013287,"MEAN_MOTION_DDOT":0},{"OBJECT_NAME":"STARLINK-2468","OBJECT_ID":"2021-027AM","EPOCH":"2025-11-06T12:50:36.966048","MEAN_MOTION":15.06402595,"ECCENTRICITY":0.0001417,"INCLINATION":53.0549,"RA_OF_ASC_NODE":4.4798,"ARG_OF_PERICENTER":72.3223,"MEAN_ANOMALY":287.7921,"EPHEMERIS_TYPE":0,"CLASSIFICATION_TYPE":"U","NORAD_CAT_ID":48127,"ELEMENT_SET_NO":999,"REV_AT_EPOCH":25385,"BSTAR":0.0010009,"MEAN_MOTION_DOT":0.00014659,"MEAN_MOTION_DDOT":0},{"OBJECT_NAME":"STARLINK-2469","OBJECT_ID":"2021-027AN","EPOCH":"2025-11-06T15:33:49.236192","MEAN_MOTION":15.06415859,"ECCENTRICITY":0.0001542,"INCLINATION":53.0553,"RA_OF_ASC_NODE":294.0574,"ARG_OF_PERICENTER":87.3675,"MEAN_ANOMALY":272.7491,"EPHEMERIS_TYPE":0,"CLASSIFICATION_TYPE":"U","NORAD_CAT_ID":48128,"ELEMENT_SET_NO":999,"REV_AT_EPOCH":25484,"BSTAR":-0.00033667,"MEAN_MOTION_DOT":-5.295e-5,"MEAN_MOTION_DDOT":0},{"OBJECT_NAME":"STARLINK-2471","OBJECT_ID":"2021-027AP","EPOCH":"2025-11-06T11:04:26.707008","MEAN_MOTION":15.06416337,"ECCENTRICITY":0.0001353,"INCLINATION":53.0548,"RA_OF_ASC_NODE":4.8118,"ARG_OF_PERICENTER":97.7039,"MEAN_ANOMALY":262.4104,"EPHEMERIS_TYPE":0,"CLASSIFICATION_TYPE":"U","NORAD_CAT_ID":48129,"ELEMENT_SET_NO":999,"REV_AT_EPOCH":25384,"BSTAR":0.0010724,"MEAN_MOTION_DOT":0.00015735,"MEAN_MOTION_DDOT":0},{"OBJECT_NAME":"STARLINK-2472","OBJECT_ID":"2021-027AQ","EPOCH":"2025-11-06T13:40:27.294240","MEAN_MOTION":15.06430747,"ECCENTRICITY":0.0001345,"INCLINATION":53.055,"RA_OF_ASC_NODE":9.8741,"ARG_OF_PERICENTER":82.4968,"MEAN_ANOMALY":277.6174,"EPHEMERIS_TYPE":0,"CLASSIFICATION_TYPE":"U","NORAD_CAT_ID":48130,"ELEMENT_SET_NO":999,"REV_AT_EPOCH":25378,"BSTAR":0.0015844,"MEAN_MOTION_DOT":0.00023417,"MEAN_MOTION_DDOT":0},{"OBJECT_NAME":"STARLINK-2473","OBJECT_ID":"2021-027AR","EPOCH":"2025-11-06T11:17:43.359936","MEAN_MOTION":15.06406619,"ECCENTRICITY":0.0001492,"INCLINATION":53.0546,"RA_OF_ASC_NODE":344.7702,"ARG_OF_PERICENTER":100.6991,"MEAN_ANOMALY":259.4166,"EPHEMERIS_TYPE":0,"CLASSIFICATION_TYPE":"U","NORAD_CAT_ID":48131,"ELEMENT_SET_NO":999,"REV_AT_EPOCH":25412,"BSTAR":0.0008109,"MEAN_MOTION_DOT":0.0001182,"MEAN_MOTION_DDOT":0},{"OBJECT_NAME":"STARLINK-2474","OBJECT_ID":"2021-027AS","EPOCH":"2025-11-06T13:59:36.066048","MEAN_MOTION":15.06420912,"ECCENTRICITY":0.0001275,"INCLINATION":53.0552,"RA_OF_ASC_NODE":4.265,"ARG_OF_PERICENTER":90.0632,"MEAN_ANOMALY":270.0503,"EPHEMERIS_TYPE":0,"CLASSIFICATION_TYPE":"U","NORAD_CAT_ID":48132,"ELEMENT_SET_NO":999,"REV_AT_EPOCH":25385,"BSTAR":0.0010822,"MEAN_MOTION_DOT":0.00015884,"MEAN_MOTION_DDOT":0},{"OBJECT_NAME":"STARLINK-2475","OBJECT_ID":"2021-027AT","EPOCH":"2025-11-06T10:43:12.251712","MEAN_MOTION":15.06416432,"ECCENTRICITY":0.0001334,"INCLINATION":53.0556,"RA_OF_ASC_NODE":4.8767,"ARG_OF_PERICENTER":93.8041,"MEAN_ANOMALY":266.3101,"EPHEMERIS_TYPE":0,"CLASSIFICATION_TYPE":"U","NORAD_CAT_ID":48133,"ELEMENT_SET_NO":999,"REV_AT_EPOCH":25384,"BSTAR":-2.885e-5,"MEAN_MOTION_DOT":-7.11e-6,"MEAN_MOTION_DDOT":0},{"OBJECT_NAME":"STARLINK-2476","OBJECT_ID":"2021-027AU","EPOCH":"2025-11-06T13:33:04.451904","MEAN_MOTION":15.06418714,"ECCENTRICITY":0.0001615,"INCLINATION":53.0555,"RA_OF_ASC_NODE":4.3491,"ARG_OF_PERICENTER":75.1392,"MEAN_ANOMALY":284.9776,"EPHEMERIS_TYPE":0,"CLASSIFICATION_TYPE":"U","NORAD_CAT_ID":48134,"ELEMENT_SET_NO":999,"REV_AT_EPOCH":25385,"BSTAR":0.0012865,"MEAN_MOTION_DOT":0.00018943,"MEAN_MOTION_DDOT":0},{"OBJECT_NAME":"STARLINK-2478","OBJECT_ID":"2021-027AV","EPOCH":"2025-11-06T10:24:00.563040","MEAN_MOTION":15.0640441,"ECCENTRICITY":0.0001199,"INCLINATION":53.0544,"RA_OF_ASC_NODE":10.1036,"ARG_OF_PERICENTER":89.0722,"MEAN_ANOMALY":271.0404,"EPHEMERIS_TYPE":0,"CLASSIFICATION_TYPE":"U","NORAD_CAT_ID":48135,"ELEMENT_SET_NO":999,"REV_AT_EPOCH":25376,"BSTAR":0.00089341,"MEAN_MOTION_DOT":0.00013052,"MEAN_MOTION_DDOT":0},{"OBJECT_NAME":"STARLINK-2479","OBJECT_ID":"2021-027AW","EPOCH":"2025-11-06T13:43:44.378688","MEAN_MOTION":15.06400453,"ECCENTRICITY":0.0001419,"INCLINATION":53.0558,"RA_OF_ASC_NODE":4.8167,"ARG_OF_PERICENTER":96.115,"MEAN_ANOMALY":264,"EPHEMERIS_TYPE":0,"CLASSIFICATION_TYPE":"U","NORAD_CAT_ID":48136,"ELEMENT_SET_NO":999,"REV_AT_EPOCH":25385,"BSTAR":-0.00054354,"MEAN_MOTION_DOT":-8.368e-5,"MEAN_MOTION_DDOT":0}]
